ONEWEB-0158             
1 48054U 21025N   25298.72986041  .00000227  00000+0  58624-3 0  9992
2 48054  87.9043   6.8023 0001779 111.2513 248.8806 13.13470242222853
ONEWEB-0157             
1 48055U 21025P   25298.75525367 -.00000328  00000+0 -93399-3 0  9998
2 48055  87.9039   6.8040 0002180  93.6943 266.4436 13.13469916222799
ONEWEB-0162             
1 48056U 21025Q   25298.73141801  .00000203  00000+0  51968-3 0  9990
2 48056  87.9044   6.8096 0001840  98.9979 261.1358 13.13470356222768
ONEWEB-0155             
1 48057U 21025R   25298.73831751  .00000054  00000+0  11342-3 0  9997
2 48057  87.9043   6.8141 0002002 102.3945 257.7408 13.13466886222909
ONEWEB-0149             
1 48058U 21025S   25298.76032242 -.00000293  00000+0 -83802-3 0  9996
2 48058  87.9039   6.8036 0001725  94.0732 266.0594 13.13470432222710
ONEWEB-0148             
1 48059U 21025T   25298.72309124  .00000314  00000+0  82528-3 0  9995
2 48059  87.9031   6.8340 0001755  80.4667 279.6660 13.13469120222839
ONEWEB-0160             
1 48060U 21025U   25298.74000536  .00000031  00000+0  51025-4 0  9999
2 48060  87.9034   6.8276 0001451 126.6395 233.4868 13.13470460222787
ONEWEB-0163             
1 48061U 21025V   25298.72477922  .00000294  00000+0  77031-3 0  9990
2 48061  87.9040   6.8138 0002099  96.9112 263.2256 13.13468654222905
